     2              NAVIGATION DATA                         RINEX VERSION / TYPE
CCRINEXN V1.6.0 UX  CDDIS               07-JAN-22 03:31     PGM / RUN BY / DATE 
IGS BROADCAST EPHEMERIS FILE                                COMMENT             
    0.7451D-08 -0.1490D-07 -0.5960D-07  0.1192D-06          ION ALPHA           
    0.9011D+05 -0.6554D+05 -0.1311D+06  0.4588D+06          ION BETA            
    0.279396772385D-08 0.266453525910D-14   589824     2191 DELTA-UTC: A0,A1,T,W
    18                                                      LEAP SECONDS        
                                                            END OF HEADER       
27 22  1  6  6  0  0.0 0.514844432473D-04 0.238742359215D-10 0.000000000000D+00
    0.730000000000D+02 0.860937500000D+02 0.402266756025D-08-0.134951954694D+01
    0.438466668129D-05 0.995984056499D-02 0.107884407043D-04 0.515365193939D+04
    0.367200000000D+06 0.197440385819D-06-0.222106930127D+01-0.949949026108D-07
    0.973946237159D+00 0.175937500000D+03 0.627569660612D+00-0.772746473707D-08
   -0.139291516337D-10 0.100000000000D+01 0.219100000000D+04 0.000000000000D+00
    0.280000000000D+01 0.000000000000D+00 0.186264514923D-08 0.730000000000D+02
    0.360018000000D+06 0.400000000000D+01 0.000000000000D+00 0.000000000000D+00
28 22  1  6  6  0  0.0 0.427962746471D-03-0.784439180279D-11 0.000000000000D+00
    0.460000000000D+02-0.468750000000D+01 0.445375694542D-08-0.899080087826D+00
   -0.255182385445D-06 0.170467076823D-01 0.921078026295D-05 0.515370409012D+04
    0.367200000000D+06-0.305473804474D-06 0.310952346754D+01-0.745058059692D-08
    0.970258886309D+00 0.213375000000D+03-0.129549889183D+01-0.822177104119D-08
   -0.341085636157D-09 0.100000000000D+01 0.219100000000D+04 0.000000000000D+00
    0.200000000000D+01 0.630000000000D+02-0.111758708954D-07 0.460000000000D+02
    0.360018000000D+06 0.400000000000D+01 0.000000000000D+00 0.000000000000D+00
29 22  1  6  6  0  0.0-0.463678967208D-03-0.500222085975D-11 0.000000000000D+00
    0.260000000000D+02 0.104968750000D+03 0.386408952627D-08-0.124931625773D+01
    0.528991222382D-05 0.175363209564D-02 0.104308128357D-04 0.515377430534D+04
    0.367200000000D+06-0.931322574616D-08-0.214594351617D+01-0.260770320892D-07
    0.982270940305D+00 0.194062500000D+03 0.230370792997D+01-0.772460747519D-08
    0.392873507616D-10 0.100000000000D+01 0.219100000000D+04 0.000000000000D+00
    0.200000000000D+01 0.000000000000D+00-0.102445483208D-07 0.260000000000D+02
    0.361129000000D+06 0.400000000000D+01 0.000000000000D+00 0.000000000000D+00
30 22  1  6  6  0  0.0-0.504748895764D-03-0.272848410532D-11 0.000000000000D+00
    0.710000000000D+02 0.258750000000D+02 0.538915305128D-08 0.205375759735D+01
    0.136159360409D-05 0.539854099043D-02 0.635907053947D-05 0.515359105682D+04
    0.367200000000D+06-0.156462192535D-06 0.198892557972D+01 0.521540641785D-07
    0.935797178200D+00 0.244937500000D+03-0.275347523382D+01-0.847321008607D-08
    0.262868092368D-09 0.100000000000D+01 0.219100000000D+04 0.000000000000D+00
    0.200000000000D+01 0.000000000000D+00 0.372529029846D-08 0.710000000000D+02
    0.360018000000D+06 0.400000000000D+01 0.000000000000D+00 0.000000000000D+00
31 22  1  6  6  0  0.0-0.158598646522D-03-0.181898940355D-11 0.000000000000D+00
    0.590000000000D+02 0.231562500000D+02 0.494984903822D-08 0.159638942613D+01
    0.137649476528D-05 0.104570357362D-01 0.686198472977D-05 0.515366156197D+04
    0.367200000000D+06-0.670552253723D-07 0.199310281648D+01 0.856816768646D-07
    0.954871581868D+00 0.247343750000D+03 0.362680802928D+00-0.822962851135D-08
    0.193222334200D-09 0.100000000000D+01 0.219100000000D+04 0.000000000000D+00
    0.200000000000D+01 0.000000000000D+00-0.130385160446D-07 0.590000000000D+02
    0.360018000000D+06 0.400000000000D+01 0.000000000000D+00 0.000000000000D+00
32 22  1  6  6  0  0.0-0.461167655885D-04-0.591171556152D-11 0.000000000000D+00
    0.220000000000D+02-0.580312500000D+02 0.442518432669D-08-0.657084051880D+00
   -0.305101275444D-05 0.538259383757D-02 0.120270997286D-04 0.515376316452D+04
    0.367200000000D+06 0.596046447754D-07 0.913915019269D+00 0.134110450745D-06
    0.957803870959D+00 0.146687500000D+03-0.237990562442D+01-0.796426031484D-08
    0.197151069276D-09 0.100000000000D+01 0.219100000000D+04 0.000000000000D+00
    0.200000000000D+01 0.000000000000D+00 0.465661287308D-09 0.220000000000D+02
    0.360067000000D+06 0.400000000000D+01 0.000000000000D+00 0.000000000000D+00
22 22  1  6  7 59 44.0-0.424031633884D-03 0.886757334229D-11 0.000000000000D+00
    0.300000000000D+01-0.101250000000D+03 0.528879172798D-08-0.142848144265D+01
   -0.522285699844D-05 0.685518037062D-02 0.383704900742D-05 0.515364059257D+04
    0.374384000000D+06-0.160187482834D-06-0.232604346185D+00-0.502914190292D-07
    0.938278737841D+00 0.292562500000D+03-0.862905820520D+00-0.875465038061D-08
   -0.186436337250D-09 0.100000000000D+01 0.219100000000D+04 0.000000000000D+00
    0.200000000000D+01 0.630000000000D+02-0.176951289177D-07 0.300000000000D+01
    0.370956000000D+06 0.400000000000D+01 0.000000000000D+00 0.000000000000D+00
 1 22  1  6  8  0  0.0 0.464542303234D-03-0.989075488178D-11 0.000000000000D+00
    0.820000000000D+02 0.636562500000D+02 0.422481883781D-08-0.252764672334D+01
    0.316090881825D-05 0.112295321887D-01 0.318884849548D-05 0.515366985703D+04
    0.374400000000D+06 0.156462192535D-06-0.116082351072D+01-0.178813934326D-06
    0.986373370753D+00 0.331062500000D+03 0.883867944419D+00-0.806033574534D-08
    0.353228999120D-09 0.100000000000D+01 0.219100000000D+04 0.000000000000D+00
    0.200000000000D+01 0.000000000000D+00 0.512227416039D-08 0.820000000000D+02
    0.367218000000D+06 0.400000000000D+01 0.000000000000D+00 0.000000000000D+00
 2 22  1  6  8  0  0.0-0.647884793580D-03-0.102318153950D-11 0.000000000000D+00
    0.940000000000D+02 0.665312500000D+02 0.448982987658D-08-0.235977961672D+01
    0.374019145966D-05 0.206537510967D-01 0.257045030594D-05 0.515367426109D+04
    0.374400000000D+06 0.171363353729D-06-0.124928943074D+01 0.219792127609D-06
    0.964720032690D+00 0.328093750000D+03-0.146142345829D+01-0.799854745732D-08
    0.337514058815D-09 0.100000000000D+01 0.219100000000D+04 0.000000000000D+00
    0.200000000000D+01 0.000000000000D+00-0.176951289177D-07 0.940000000000D+02
    0.367218000000D+06 0.400000000000D+01 0.000000000000D+00 0.000000000000D+00
 3 22  1  6  8  0  0.0-0.676200725138D-04-0.143245415529D-10 0.000000000000D+00
    0.700000000000D+02-0.108812500000D+03 0.436982487789D-08 0.258287477449D+01
   -0.572018325329D-05 0.384708237834D-02 0.482052564621D-05 0.515370646858D+04
    0.374400000000D+06-0.745058059692D-08-0.125323438830D+00-0.260770320892D-07
    0.972426740723D+00 0.290000000000D+03 0.984594861745D+00-0.813783897366D-08
   -0.275725770799D-09 0.100000000000D+01 0.219100000000D+04 0.000000000000D+00
    0.200000000000D+01 0.000000000000D+00 0.186264514923D-08 0.700000000000D+02
    0.367218000000D+06 0.400000000000D+01 0.000000000000D+00 0.000000000000D+00
 4 22  1  6  8  0  0.0-0.196179375053D-03 0.159161572810D-11 0.000000000000D+00
    0.520000000000D+02-0.603750000000D+02 0.420160358508D-08-0.696424346012D+00
   -0.320002436638D-05 0.164010457229D-02 0.117588788271D-04 0.515367157555D+04
    0.374400000000D+06 0.540167093277D-07 0.955469369694D+00-0.372529029846D-07
    0.960925901987D+00 0.152750000000D+03-0.311394933016D+01-0.778711007868D-08
    0.202508435289D-09 0.100000000000D+01 0.219100000000D+04 0.000000000000D+00
    0.200000000000D+01 0.000000000000D+00-0.419095158577D-08 0.520000000000D+02
    0.367758000000D+06 0.400000000000D+01 0.000000000000D+00 0.000000000000D+00
 5 22  1  6  8  0  0.0-0.669420696795D-04-0.136424205266D-11 0.000000000000D+00
    0.810000000000D+02-0.100500000000D+03 0.470126725522D-08 0.114281697434D+00
   -0.507198274136D-05 0.589536118787D-02 0.481680035591D-05 0.515364812851D+04
    0.374400000000D+06-0.242143869400D-07-0.165171187060D+00-0.186264514923D-08
    0.959404481813D+00 0.284062500000D+03 0.101649164290D+01-0.842820821156D-08
   -0.263225250102D-09 0.100000000000D+01 0.219100000000D+04 0.000000000000D+00
    0.200000000000D+01 0.000000000000D+00-0.111758708954D-07 0.810000000000D+02
    0.367218000000D+06 0.400000000000D+01 0.000000000000D+00 0.000000000000D+00
 6 22  1  6  8  0  0.0 0.162977725267D-03 0.106865627458D-10 0.000000000000D+00
    0.830000000000D+02 0.600937500000D+02 0.425982029576D-08-0.215069355119D+01
    0.325776636601D-05 0.258977431804D-02 0.342726707458D-05 0.515364390945D+04
    0.374400000000D+06-0.558793544769D-07-0.116909215338D+01 0.540167093277D-07
    0.985758324882D+00 0.327312500000D+03-0.100874017250D+01-0.809498004555D-08
    0.240724312848D-09 0.100000000000D+01 0.219100000000D+04 0.000000000000D+00
    0.200000000000D+01 0.000000000000D+00 0.419095158577D-08 0.830000000000D+02
    0.367218000000D+06 0.400000000000D+01 0.000000000000D+00 0.000000000000D+00
 7 22  1  6  8  0  0.0 0.298974569887D-03 0.386535248253D-11 0.000000000000D+00
    0.410000000000D+02 0.239375000000D+02 0.489948979770D-08 0.309810933596D+01
    0.110082328320D-05 0.154045029776D-01 0.689737498760D-05 0.515369880104D+04
    0.374400000000D+06 0.149011611938D-07 0.197510395457D+01-0.217929482460D-06
    0.950622921055D+00 0.239750000000D+03-0.229734686812D+01-0.792175854447D-08
    0.321799118511D-09 0.100000000000D+01 0.219100000000D+04 0.000000000000D+00
    0.200000000000D+01 0.000000000000D+00-0.111758708954D-07 0.410000000000D+02
    0.368112000000D+06 0.400000000000D+01 0.000000000000D+00 0.000000000000D+00
